{
  "type": "FeatureCollection",
  "features": [
    {
      "type": "Feature",
      "properties": {
        "norad_id": 36744,
        "name": "COMS 1",
        "group": "weather",
        "lat": 0.26658526077068917,
        "lon": 81.10051722829266,
        "alt_km": 35790.06086897179,
        "timestamp": "2025-12-27T14:26:30.158808+00:00",
        "meta_object_name": "COMS 1",
        "meta_object_id": "2010-032A",
        "meta_epoch": "2025-12-25T12:42:15.782976",
        "meta_mean_motion": 1.00270082,
        "meta_eccentricity": 8.877e-05,
        "meta_inclination": 4.3689,
        "meta_ra_of_asc_node": 77.8525,
        "meta_arg_of_pericenter": 213.8569,
        "meta_mean_anomaly": 121.3153,
        "meta_ephemeris_type": 0,
        "meta_classification_type": "U",
        "meta_norad_cat_id": 36744,
        "meta_element_set_no": 999,
        "meta_rev_at_epoch": 4934,
        "meta_bstar": 0,
        "meta_mean_motion_dot": -3.24e-06,
        "meta_mean_motion_ddot": 0,
        "tle_line1": "1 36744U 10032A   25359.52934934 -.00000324  00000+0  00000+0 0  9991",
        "tle_line2": "2 36744   4.3689  77.8525 0000887 213.8569 121.3153  1.00270082 49343"
      },
      "geometry": {
        "type": "Point",
        "coordinates": [
          81.10051722829266,
          0.26658526077068917
        ]
      }
    },
    {
      "type": "Feature",
      "properties": {
        "norad_id": 37214,
        "name": "FENGYUN 3B",
        "group": "weather",
        "lat": 80.91995789142197,
        "lon": -40.37796274676247,
        "alt_km": 846.2226287386311,
        "timestamp": "2025-12-27T14:26:30.158820+00:00",
        "meta_object_name": "FENGYUN 3B",
        "meta_object_id": "2010-059A",
        "meta_epoch": "2025-12-27T07:32:08.155392",
        "meta_mean_motion": 14.14794796,
        "meta_eccentricity": 0.00214161,
        "meta_inclination": 98.9888,
        "meta_ra_of_asc_node": 41.3915,
        "meta_arg_of_pericenter": 315.857,
        "meta_mean_anomaly": 107.9236,
        "meta_ephemeris_type": 0,
        "meta_classification_type": "U",
        "meta_norad_cat_id": 37214,
        "meta_element_set_no": 999,
        "meta_rev_at_epoch": 78312,
        "meta_bstar": 0.00015153557,
        "meta_mean_motion_dot": 2.47e-06,
        "meta_mean_motion_ddot": 0,
        "tle_line1": "1 37214U 10059A   25361.31398328  .00000247  00000+0  15154-3 0  9997",
        "tle_line2": "2 37214  98.9888  41.3915 0021416 315.8570 107.9236 14.14794796783126"
      },
      "geometry": {
        "type": "Point",
        "coordinates": [
          -40.37796274676247,
          80.91995789142197
        ]
      }
    },
    {
      "type": "Feature",
      "properties": {
        "norad_id": 37849,
        "name": "SUOMI NPP",
        "group": "weather",
        "lat": -1.6697581886517534,
        "lon": 118.55257551127015,
        "alt_km": 830.0311979488406,
        "timestamp": "2025-12-27T14:26:30.158832+00:00",
        "meta_object_name": "SUOMI NPP",
        "meta_object_id": "2011-061A",
        "meta_epoch": "2025-12-26T22:21:51.604992",
        "meta_mean_motion": 14.19518423,
        "meta_eccentricity": 0.00025484,
        "meta_inclination": 98.7791,
        "meta_ra_of_asc_node": 298.1468,
        "meta_arg_of_pericenter": 95.8793,
        "meta_mean_anomaly": 264.2673,
        "meta_ephemeris_type": 0,
        "meta_classification_type": "U",
        "meta_norad_cat_id": 37849,
        "meta_element_set_no": 999,
        "meta_rev_at_epoch": 73400,
        "meta_bstar": 8.5991589e-05,
        "meta_mean_motion_dot": 1.37e-06,
        "meta_mean_motion_ddot": 0,
        "tle_line1": "1 37849U 11061A   25360.93184728  .00000137  00000+0  85992-4 0  9995",
        "tle_line2": "2 37849  98.7791 298.1468 0002548  95.8793 264.2673 14.19518423734004"
      },
      "geometry": {
        "type": "Point",
        "coordinates": [
          118.55257551127015,
          -1.6697581886517534
        ]
      }
    },
    {
      "type": "Feature",
      "properties": {
        "norad_id": 38552,
        "name": "METEOSAT-10 (MSG-3)",
        "group": "weather",
        "lat": -4.056491300509165,
        "lon": -46.85913711029534,
        "alt_km": 35781.640969701424,
        "timestamp": "2025-12-27T14:26:30.158845+00:00",
        "meta_object_name": "METEOSAT-10 (MSG-3)",
        "meta_object_id": "2012-035B",
        "meta_epoch": "2025-12-26T23:18:23.522112",
        "meta_mean_motion": 1.0026664,
        "meta_eccentricity": 0.0001553,
        "meta_inclination": 4.2601,
        "meta_ra_of_asc_node": 61.6826,
        "meta_arg_of_pericenter": 264.1949,
        "meta_mean_anomaly": 119.6815,
        "meta_ephemeris_type": 0,
        "meta_classification_type": "U",
        "meta_norad_cat_id": 38552,
        "meta_element_set_no": 999,
        "meta_rev_at_epoch": 4913,
        "meta_bstar": 0,
        "meta_mean_motion_dot": 1.4e-07,
        "meta_mean_motion_ddot": 0,
        "tle_line1": "1 38552U 12035B   25360.97110558  .00000014  00000+0  00000+0 0  9999",
        "tle_line2": "2 38552   4.2601  61.6826 0001553 264.1949 119.6815  1.00266640 49139"
      },
      "geometry": {
        "type": "Point",
        "coordinates": [
          -46.85913711029534,
          -4.056491300509165
        ]
      }
    },
    {
      "type": "Feature",
      "properties": {
        "norad_id": 38771,
        "name": "METOP-B",
        "group": "weather",
        "lat": 44.36017160232404,
        "lon": -120.10362062938859,
        "alt_km": 814.5525998367266,
        "timestamp": "2025-12-27T14:26:30.158856+00:00",
        "meta_object_name": "METOP-B",
        "meta_object_id": "2012-049A",
        "meta_epoch": "2025-12-27T05:21:44.347680",
        "meta_mean_motion": 14.21413865,
        "meta_eccentricity": 0.00033136,
        "meta_inclination": 98.6779,
        "meta_ra_of_asc_node": 50.9353,
        "meta_arg_of_pericenter": 114.2861,
        "meta_mean_anomaly": 245.8662,
        "meta_ephemeris_type": 0,
        "meta_classification_type": "U",
        "meta_norad_cat_id": 38771,
        "meta_element_set_no": 999,
        "meta_rev_at_epoch": 68883,
        "meta_bstar": 8.7344859e-05,
        "meta_mean_motion_dot": 1.47e-06,
        "meta_mean_motion_ddot": 0,
        "tle_line1": "1 38771U 12049A   25361.22342995  .00000147  00000+0  87345-4 0  9997",
        "tle_line2": "2 38771  98.6779  50.9353 0003313 114.2861 245.8662 14.21413865688833"
      },
      "geometry": {
        "type": "Point",
        "coordinates": [
          -120.10362062938859,
          44.36017160232404
        ]
      }
    },
    {
      "type": "Feature",
      "properties": {
        "norad_id": 39216,
        "name": "INSAT-3D",
        "group": "weather",
        "lat": -0.04228730396237136,
        "lon": 82.50001813627367,
        "alt_km": 35793.81621904558,
        "timestamp": "2025-12-27T14:26:30.158869+00:00",
        "meta_object_name": "INSAT-3D",
        "meta_object_id": "2013-038B",
        "meta_epoch": "2025-12-27T06:46:11.127072",
        "meta_mean_motion": 1.00272868,
        "meta_eccentricity": 0.00019878,
        "meta_inclination": 1.4805,
        "meta_ra_of_asc_node": 84.8292,
        "meta_arg_of_pericenter": 159.4606,
        "meta_mean_anomaly": 82.8276,
        "meta_ephemeris_type": 0,
        "meta_classification_type": "U",
        "meta_norad_cat_id": 39216,
        "meta_element_set_no": 999,
        "meta_rev_at_epoch": 4535,
        "meta_bstar": 0,
        "meta_mean_motion_dot": -3.17e-06,
        "meta_mean_motion_ddot": 0,
        "tle_line1": "1 39216U 13038B   25361.28207323 -.00000317  00000+0  00000+0 0  9990",
        "tle_line2": "2 39216   1.4805  84.8292 0001987 159.4606  82.8276  1.00272868 45354"
      },
      "geometry": {
        "type": "Point",
        "coordinates": [
          82.50001813627367,
          -0.04228730396237136
        ]
      }
    },
    {
      "type": "Feature",
      "properties": {
        "norad_id": 39260,
        "name": "FENGYUN 3C",
        "group": "weather",
        "lat": 73.85968823133182,
        "lon": -52.46743647080811,
        "alt_km": 830.3997688326945,
        "timestamp": "2025-12-27T14:26:30.158894+00:00",
        "meta_object_name": "FENGYUN 3C",
        "meta_object_id": "2013-052A",
        "meta_epoch": "2025-12-27T05:36:05.128416",
        "meta_mean_motion": 14.15700753,
        "meta_eccentricity": 0.00150895,
        "meta_inclination": 98.4781,
        "meta_ra_of_asc_node": 338.2062,
        "meta_arg_of_pericenter": 154.4017,
        "meta_mean_anomaly": 205.7908,
        "meta_ephemeris_type": 0,
        "meta_classification_type": "U",
        "meta_norad_cat_id": 39260,
        "meta_element_set_no": 999,
        "meta_rev_at_epoch": 63423,
        "meta_bstar": 8.460437e-05,
        "meta_mean_motion_dot": 1.25e-06,
        "meta_mean_motion_ddot": 0,
        "tle_line1": "1 39260U 13052A   25361.23339269  .00000125  00000+0  84604-4 0  9998",
        "tle_line2": "2 39260  98.4781 338.2062 0015089 154.4017 205.7908 14.15700753634230"
      },
      "geometry": {
        "type": "Point",
        "coordinates": [
          -52.46743647080811,
          73.85968823133182
        ]
      }
    }
  ]
}